{"type": "FeatureCollection", "features": [ {"type": "Feature", "properties": {"norad_id": 30331, "name": "FENGYUN 1C DEB", "group": "fengyun-1c-debris", "lat": -57.21903068851851, "lon": 28.543362443551658, "alt_km": 902.649042823693, "timestamp": "2025-12-05T14:45:15.574627+00:00", "meta": {"OBJECT_NAME": "FENGYUN 1C DEB", "OBJECT_ID": "1999-025AAS", "EPOCH": "2025-12-04T08:24:41.179968", "MEAN_MOTION": 13.9781598, "ECCENTRICITY": 0.0096977, "INCLINATION": 98.9582, "RA_OF_ASC_NODE": 13.1319, "ARG_OF_PERICENTER": 31.102, "MEAN_ANOMALY": 33.1491, "EPHEMERIS_TYPE": 0, "CLASSIFICATION_TYPE": "U", "NORAD_CAT_ID": 30331, "ELEMENT_SET_NO": 999, "REV_AT_EPOCH": 96002, "BSTAR": 0.00072927, "MEAN_MOTION_DOT": 1.031e-05, "MEAN_MOTION_DDOT": 0}, "tle": {"line1": "1 30331U 99025AAS 25338.35047662  .00001031  00000+0  72927-3 0  9993", "line2": "2 30331  98.9582  13.1319 0096977  31.1020  33.1491 13.97815980960025"}}, "geometry": {"type": "Point", "coordinates": [28.543362443551658, -57.21903068851851]}}, {"type": "Feature", "properties": {"norad_id": 30332, "name": "FENGYUN 1C DEB", "group": "fengyun-1c-debris", "lat": 32.98890270959982, "lon": 137.37119424498835, "alt_km": 854.39091882506, "timestamp": "2025-12-05T14:45:15.574638+00:00", "meta": {"OBJECT_NAME": "FENGYUN 1C DEB", "OBJECT_ID": "1999-025AAT", "EPOCH": "2025-12-04T10:45:46.607040", "MEAN_MOTION": 13.76699318, "ECCENTRICITY": 0.0177952, "INCLINATION": 99.7141, "RA_OF_ASC_NODE": 309.7967, "ARG_OF_PERICENTER": 124.4596, "MEAN_ANOMALY": 3.7365, "EPHEMERIS_TYPE": 0, "CLASSIFICATION_TYPE": "U", "NORAD_CAT_ID": 30332, "ELEMENT_SET_NO": 999, "REV_AT_EPOCH": 94601, "BSTAR": 0.00058927, "MEAN_MOTION_DOT": 6.05e-06, "MEAN_MOTION_DDOT": 0}, "tle": {"line1": "1 30332U 99025AAT 25338.44845610  .00000605  00000+0  58927-3 0  9993", "line2": "2 30332  99.7141 309.7967 0177952 124.4596   3.7365 13.76699318946014"}}, "geometry": {"type": "Point", "coordinates": [137.37119424498835, 32.98890270959982]}}, {"type": "Feature", "properties": {"norad_id": 30334, "name": "FENGYUN 1C DEB", "group": "fengyun-1c-debris", "lat": 55.00033228591883, "lon": 66.26504516533755, "alt_km": 852.6930321212822, "timestamp": "2025-12-05T14:45:15.574648+00:00", "meta": {"OBJECT_NAME": "FENGYUN 1C DEB", "OBJECT_ID": "1999-025AAV", "EPOCH": "2025-12-03T05:52:50.700000", "MEAN_MOTION": 13.92330154, "ECCENTRICITY": 0.0144841, "INCLINATION": 99.0214, "RA_OF_ASC_NODE": 77.0715, "ARG_OF_PERICENTER": 8.1013, "MEAN_ANOMALY": 55.0559, "EPHEMERIS_TYPE": 0, "CLASSIFICATION_TYPE": "U", "NORAD_CAT_ID": 30334, "ELEMENT_SET_NO": 999, "REV_AT_EPOCH": 95089, "BSTAR": 0.0015203, "MEAN_MOTION_DOT": 2.085e-05, "MEAN_MOTION_DDOT": 0}, "tle": {"line1": "1 30334U 99025AAV 25337.24503125  .00002085  00000+0  15203-2 0  9997", "line2": "2 30334  99.0214  77.0715 0144841   8.1013  55.0559 13.92330154950893"}}, "geometry": {"type": "Point", "coordinates": [66.26504516533755, 55.00033228591883]}}, {"type": "Feature", "properties": {"norad_id": 30335, "name": "FENGYUN 1C DEB", "group": "fengyun-1c-debris", "lat": 32.297553196389906, "lon": -34.60406988521372, "alt_km": 932.1547843975686, "timestamp": "2025-12-05T14:45:15.574658+00:00", "meta": {"OBJECT_NAME": "FENGYUN 1C DEB", "OBJECT_ID": "1999-025AAW", "EPOCH": "2025-12-04T13:30:03.335040", "MEAN_MOTION": 14.01356707, "ECCENTRICITY": 0.0132447, "INCLINATION": 98.9049, "RA_OF_ASC_NODE": 330.0568, "ARG_OF_PERICENTER": 154.3138, "MEAN_ANOMALY": 334.4271, "EPHEMERIS_TYPE": 0, "CLASSIFICATION_TYPE": "U", "NORAD_CAT_ID": 30335, "ELEMENT_SET_NO": 999, "REV_AT_EPOCH": 96476, "BSTAR": 0.00022123, "MEAN_MOTION_DOT": 3.18e-06, "MEAN_MOTION_DDOT": 0}, "tle": {"line1": "1 30335U 99025AAW 25338.56253860  .00000318  00000+0  22123-3 0  9999", "line2": "2 30335  98.9049 330.0568 0132447 154.3138 334.4271 14.01356707964766"}}, "geometry": {"type": "Point", "coordinates": [-34.60406988521372, 32.297553196389906]}}, {"type": "Feature", "properties": {"norad_id": 30336, "name": "FENGYUN 1C DEB", "group": "fengyun-1c-debris", "lat": 39.34979415146346, "lon": -172.09868735036838, "alt_km": 835.9252532460514, "timestamp": "2025-12-05T14:45:15.574669+00:00", "meta": {"OBJECT_NAME": "FENGYUN 1C DEB", "OBJECT_ID": "1999-025AAX", "EPOCH": "2025-12-04T15:00:59.812992", "MEAN_MOTION": 14.19287439, "ECCENTRICITY": 0.0043968, "INCLINATION": 98.6012, "RA_OF_ASC_NODE": 359.8123, "ARG_OF_PERICENTER": 31.905, "MEAN_ANOMALY": 96.9078, "EPHEMERIS_TYPE": 0, "CLASSIFICATION_TYPE": "U", "NORAD_CAT_ID": 30336, "ELEMENT_SET_NO": 999, "REV_AT_EPOCH": 97487, "BSTAR": 0.00059148, "MEAN_MOTION_DOT": 1.211e-05, "MEAN_MOTION_DDOT": 0}, "tle": {"line1": "1 30336U 99025AAX 25338.62569228  .00001211  00000+0  59148-3 0  9995", "line2": "2 30336  98.6012 359.8123 0043968  31.9050  96.9078 14.19287439974874"}}, "geometry": {"type": "Point", "coordinates": [-172.09868735036838, 39.34979415146346]}}, {"type": "Feature", "properties": {"norad_id": 30338, "name": "FENGYUN 1C DEB", "group": "fengyun-1c-debris", "lat": 21.21805308425891, "lon": -127.37141587106849, "alt_km": 625.3277299079064, "timestamp": "2025-12-05T14:45:15.574679+00:00", "meta": {"OBJECT_NAME": "FENGYUN 1C DEB", "OBJECT_ID": "1999-025AAZ", "EPOCH": "2025-12-04T11:32:06.088128", "MEAN_MOTION": 14.47354109, "ECCENTRICITY": 0.0272102, "INCLINATION": 98.4606, "RA_OF_ASC_NODE": 48.1804, "ARG_OF_PERICENTER": 218.9924, "MEAN_ANOMALY": 156.0004, "EPHEMERIS_TYPE": 0, "CLASSIFICATION_TYPE": "U", "NORAD_CAT_ID": 30338, "ELEMENT_SET_NO": 999, "REV_AT_EPOCH": 98025, "BSTAR": 0.0027632, "MEAN_MOTION_DOT": 0.00016127, "MEAN_MOTION_DDOT": 0}, "tle": {"line1": "1 30338U 99025AAZ 25338.48062602  .00016127  00000+0  27632-2 0  9999", "line2": "2 30338  98.4606  48.1804 0272102 218.9924 156.0004 14.47354109980254"}}, "geometry": {"type": "Point", "coordinates": [-127.37141587106849, 21.21805308425891]}}, {"type": "Feature", "properties": {"norad_id": 30339, "name": "FENGYUN 1C DEB", "group": "fengyun-1c-debris", "lat": -79.68371905020965, "lon": -154.52015028759286, "alt_km": 787.0008122484369, "timestamp": "2025-12-05T14:45:15.574690+00:00", "meta": {"OBJECT_NAME": "FENGYUN 1C DEB", "OBJECT_ID": "1999-025ABA", "EPOCH": "2025-12-04T14:12:09.499104", "MEAN_MOTION": 14.37958213, "ECCENTRICITY": 0.0021948, "INCLINATION": 98.9745, "RA_OF_ASC_NODE": 84.6602, "ARG_OF_PERICENTER": 109.4848, "MEAN_ANOMALY": 262.6005, "EPHEMERIS_TYPE": 0, "CLASSIFICATION_TYPE": "U", "NORAD_CAT_ID": 30339, "ELEMENT_SET_NO": 999, "REV_AT_EPOCH": 97310, "BSTAR": 0.0067637, "MEAN_MOTION_DOT": 0.00020511, "MEAN_MOTION_DDOT": 0}, "tle": {"line1": "1 30339U 99025ABA 25338.59177661  .00020511  00000+0  67637-2 0  9995", "line2": "2 30339  98.9745  84.6602 0021948 109.4848 262.6005 14.37958213973100"}}, "geometry": {"type": "Point", "coordinates": [-154.52015028759286, -79.68371905020965]}}, {"type": "Feature", "properties": {"norad_id": 30340, "name": "FENGYUN 1C DEB", "group": "fengyun-1c-debris", "lat": -80.99036240230244, "lon": 127.4092361266009, "alt_km": 929.2048988803781, "timestamp": "2025-12-05T14:45:15.574700+00:00", "meta": {"OBJECT_NAME": "FENGYUN 1C DEB", "OBJECT_ID": "1999-025ABB", "EPOCH": "2025-12-04T15:59:32.482752", "MEAN_MOTION": 14.04593764, "ECCENTRICITY": 0.0145913, "INCLINATION": 99.0027, "RA_OF_ASC_NODE": 35.4592, "ARG_OF_PERICENTER": 157.1992, "MEAN_ANOMALY": 358.0656, "EPHEMERIS_TYPE": 0, "CLASSIFICATION_TYPE": "U", "NORAD_CAT_ID": 30340, "ELEMENT_SET_NO": 999, "REV_AT_EPOCH": 96667, "BSTAR": 9.2175e-05, "MEAN_MOTION_DOT": 1.18e-06, "MEAN_MOTION_DDOT": 0}, "tle": {"line1": "1 30340U 99025ABB 25338.66634818  .00000118  00000+0  92175-4 0  9995", "line2": "2 30340  99.0027  35.4592 0145913 157.1992 358.0656 14.04593764966674"}}, "geometry": {"type": "Point", "coordinates": [127.4092361266009, -80.99036240230244]}}, {"type": "Feature", "properties": {"norad_id": 30341, "name": "FENGYUN 1C DEB", "group": "fengyun-1c-debris", "lat": 77.38594426431746, "lon": -179.3516438803308, "alt_km": 736.0493138373995, "timestamp": "2025-12-05T14:45:15.574710+00:00", "meta": {"OBJECT_NAME": "FENGYUN 1C DEB", "OBJECT_ID": "1999-025ABC", "EPOCH": "2025-12-04T05:26:49.380288", "MEAN_MOTION": 14.33875673, "ECCENTRICITY": 0.0049405, "INCLINATION": 99.2197, "RA_OF_ASC_NODE": 225.7055, "ARG_OF_PERICENTER": 81.3316, "MEAN_ANOMALY": 40.1191, "EPHEMERIS_TYPE": 0, "CLASSIFICATION_TYPE": "U", "NORAD_CAT_ID": 30341, "ELEMENT_SET_NO": 999, "REV_AT_EPOCH": 96959, "BSTAR": 0.0070307, "MEAN_MOTION_DOT": 0.00019858, "MEAN_MOTION_DDOT": 0}, "tle": {"line1": "1 30341U 99025ABC 25338.22696042  .00019858  00000+0  70307-2 0  9997", "line2": "2 30341  99.2197 225.7055 0049405  81.3316  40.1191 14.33875673969591"}}, "geometry": {"type": "Point", "coordinates": [-179.3516438803308, 77.38594426431746]}}, {"type": "Feature", "properties": {"norad_id": 30342, "name": "FENGYUN 1C DEB", "group": "fengyun-1c-debris", "lat": -15.208094751409549, "lon": -24.261576164935093, "alt_km": 895.069236692776, "timestamp": "2025-12-05T14:45:15.574723+00:00", "meta": {"OBJECT_NAME": "FENGYUN 1C DEB", "OBJECT_ID": "1999-025ABD", "EPOCH": "2025-12-04T01:54:03.362112", "MEAN_MOTION": 13.80023678, "ECCENTRICITY": 0.01683157, "INCLINATION": 100.1958, "RA_OF_ASC_NODE": 156.889, "ARG_OF_PERICENTER": 144.8724, "MEAN_ANOMALY": 344.0648, "EPHEMERIS_TYPE": 0, "CLASSIFICATION_TYPE": "U", "NORAD_CAT_ID": 30342, "ELEMENT_SET_NO": 999, "REV_AT_EPOCH": 94769, "BSTAR": 0.0011344303, "MEAN_MOTION_DOT": 1.261e-05, "MEAN_MOTION_DDOT": 0}, "tle": {"line1": "1 30342U 99025ABD 25338.07920558  .00001261  00000+0  11344-2 0  9998", "line2": "2 30342 100.1958 156.8890 0168315 144.8724 344.0648 13.80023678947691"}}, "geometry": {"type": "Point", "coordinates": [-24.261576164935093, -15.208094751409549]}}]}